PollingPlaceName,Locality,PremiseName,PremiseAddress1,PremiseAddress2,PremiseLocality,PremiseState,PremisePostcode,LocationWithinPremise,AccessToLocation,Disabled Access
Acton,Acton,Burnie Child and Family Centre,36 Thorne St,,Acton,TAS,7320,hall,,Assistance
Boat Harbour,Boat Harbour,Boat Harbour Primary School,17386 Bass Hwy,,Boat Harbour,TAS,7321,hall,,Assistance
Burnie,Burnie,Burnie City Council Offices,80 Wilson St,,Burnie,TAS,7320,atrium on ground floor,,Assistance
Calder,Calder,Calder Hall,1320 Calder Rd,,Calder,TAS,7325,main area,,None
Cooee,Cooee,Cooee Primary School,Bass Hwy,,Cooee,TAS,7320,multipurpose room,,Assistance
Currie,Currie,Currie Town Hall,Cnr Meech & George Sts,,Currie,TAS,7256,supper room,,Assistance
Devonport North West,Devonport,Nixon St Primary School,60 Nixon St,,Devonport,TAS,7310,gymnasium,,Assistance
Devonport South,Devonport,Reece High School,41-43 Middle Rd,,Devonport,TAS,7310,staff room,,Assistance
Devonport Central,Devonport,St Johns Parish Hall,Fenton St,,Devonport,TAS,7310,,,Assistance
Devonport West,Devonport,TasTafe,20-36 Valley Rd,,Devonport,TAS,7310,canteen,,Assistance
Don,Don,Don Memorial Hall,17 Forth Rd,,Don,TAS,7310,,,Assistance
East Devonport,East Devonport,East Devonport Primary School,19-31 Thomas St,,East Devonport,TAS,7310,multipurpose room,,Assistance
Edith Creek,Edith Creek,Edith Creek Primary School,1282 Trowutta Rd,,Edith Creek,TAS,7330,foyer,,Assistance
Elliott,Elliott,Elliott Community Centre,829 Murchison Hwy,,Elliott,TAS,7325,main hall,,None
Forest,Forest,Forest Primary School,422 Mengha Rd,,Forest,TAS,7330,multipurpose room,,Assistance
Forth,Forth,Forth Primary School,45 Wilmot Rd,,Forth,TAS,7310,multipurpose room,,Assistance
Gawler,Gawler,Gawler Hall,15 Top Gawler Rd,,Gawler,TAS,7315,,,Assistance
Grassy,Grassy,Grassy Club,Grassy Rd,,Grassy,TAS,7256,main entertainment room,,None
Havenview,Havenview,Havenview Primary School,15 Marriott St,,Havenview,TAS,7320,multipurpose room/hall,,Assistance
Heybridge,Heybridge,Blythe Heads Hall,1 Sice Ave,,Heybridge,TAS,7316,,,Assistance
Highclere,Highclere,Highclere Community Centre,1558 Ridgley Hwy,,Highclere,TAS,7321,front of hall,,None
Irishtown,Irishtown,Irishtown Sports Complex,602 Irishtown Rd,,Irishtown,TAS,7330,,,None
Latrobe,Latrobe,Latrobe Primary School,23 Lewis St,,Latrobe,TAS,7307,Enrichment Centre,Bradshaw St,Assistance
Marrawah,Marrawah,Marrawah Memorial Hall,844 Comeback Rd,,Marrawah,TAS,7330,,,Assistance
Melrose,Melrose,Melrose Memorial Hall,673 Melrose Rd,,Melrose,TAS,7310,,,Assistance
Montello,Montello,Montello Primary School,83 Bird St,,Montello,TAS,7320,hall,,Assistance
Moorleah,Moorleah,Moorleah Community Centre,720 Preolenna Rd,,Moorleah,TAS,7321,main hall,,Assistance
Moriarty,Moriarty,Moriarty Hall,1 Bonneys La,,Moriarty,TAS,7307,,,Assistance
Natone,Natone,Natone Primary School,100 Upper Natone Rd,,Natone,TAS,7321,front entrance foyer,,Assistance
North Motton,North Motton,North Motton Hall,578 Preston Rd,,North Motton,TAS,7315,,,Assistance
Penguin,Penguin,Penguin Uniting Church Hall,50 Main Rd,,Penguin,TAS,7316,,,Assistance
Port Sorell,Port Sorell,Port Sorell Memorial Hall,Cnr Darling and Meredith Sts,,Port Sorell,TAS,7307,,,Assistance
Preston,Preston,Preston Community Centre,1833 Preston Rd,,Preston,TAS,7315,office,,Assistance
Queenstown,Queenstown,West Coast Community Services Hub,Hunter St,,Queenstown,TAS,7467,large training room,,None
Riana,Riana,Riana Community Centre,1221 Pine Rd,,Riana,TAS,7316,hall,,None
Ridgley,Ridgley,Ridgley Primary School,904 Ridgley Hwy,,Ridgley,TAS,7321,multipurpose room,,Assistance
Rocky Cape,Rocky Cape,Rocky Cape Public Hall,19074 Bass Hwy,,Rocky Cape,TAS,7321,supper room,,Assistance
Romaine,Romaine,Romaine Park Primary School,Cnr Roslyn Ave and Mount St,,Romaine,TAS,7320,multipurpose room,,Assistance
Rosebery,Rosebery,Rosebery Neighbourhood Centre,8 Agnes St,,Rosebery,TAS,7470,back room,entrance via carpark,Assistance
Sassafras,Sassafras,Sassafras Primary School,50 School Rd,,Sassafras,TAS,7307,gym/hall,,Assistance
Shorewell Park,Shorewell Park,Hellyer College,41-43 Mooreville Rd,,Shorewell Park,TAS,7320,Cafeteria K Block,,None
Sisters Beach,Sisters Beach,Sisters Beach Fire Station,Honeysuckle Ave,,Sisters Beach,TAS,7325,fire station office,,None
Sisters Creek,Sisters Creek,Myalla Community Centre,Myalla Recreation Ground,29 Myalla Rd,Sisters Creek,TAS,7321,,,None
Smithton,Smithton,Smithton Primary School,27- 43 Grant St,,Smithton,TAS,7330,assembly hall,,Full
Somerset,Somerset,Somerset Primary School,30A Beaufort St,,Somerset,TAS,7322,multipurpose room,,Assistance
South Riana,South Riana,South Riana Hall,776 South Riana Rd,,South Riana,TAS,7316,,,Assistance
Sprent,Sprent,Sprent Primary School,1245 Castra Rd,,Sprent,TAS,7315,main hall,,Assistance
Spreyton,Spreyton,Spreyton Primary School,1 Mersey Main Rd,,Spreyton,TAS,7310,multipurpose room,,Assistance
Stanley,Stanley,Stanley Primary School,Wilson St,,Stanley,TAS,7330,multipurpose room,,Assistance
Stowport,Stowport,Stowport Public Hall,580 Stowport Rd,,Stowport,TAS,7321,main area,,Assistance
Strahan,Strahan,Strahan Primary School,2 Bay St,,Strahan,TAS,7468,,,Assistance
Sulphur Creek,Sulphur Creek,Sulphur Creek Hall,310 Preservation Dr,,Sulphur Creek,TAS,7316,kitchen,,Assistance
Tullah,Tullah,Tullah Community Hall,Farrell St,,Tullah,TAS,7321,,,None
Turners Beach,Turners Beach,Turners Beach Community Centre,Henry St,,Turners Beach,TAS,7315,main hall,,Assistance
Ulverstone East,Ulverstone,East Ulverstone Primary School,18 Crawford St,,Ulverstone,TAS,7315,multipurpose room,,Assistance
Ulverstone South,Ulverstone,Ulverstone Secondary College,38 Leven St,,Ulverstone,TAS,7315,multipurpose hall,,Assistance
Ulverstone Central,Ulverstone,Ulverstone Senior Citizens Club,16 King Edward St,,Ulverstone,TAS,7315,main area,,Assistance
Waratah,Waratah,Waratah Municipal Chambers,12-14 Smith St,,Waratah,TAS,7321,Council Chambers,,Assistance
Wesley Vale,Wesley Vale,Andrews Creek Primary School,20 Westwind Dr,,Wesley Vale,TAS,7307,bottom classroom,,Assistance
West Ulverstone,West Ulverstone,West Ulverstone Primary School,34 Maud St,,West Ulverstone,TAS,7315,hall,Josephine St Entrance,Assistance
Wivenhoe,Wivenhoe,Wivenhoe Campus Leighland Christian School,Stowport Rd,,Wivenhoe,TAS,7320,foyer area outside library,,Assistance
Wynyard West,Wynyard,Wynyard High School,30 Church St,,Wynyard,TAS,7325,student centre,,Assistance
Wynyard Central,Wynyard,Wynyard Senior Citizens Clubrooms,28 Jackson St,,Wynyard,TAS,7325,entrance foyer,,Assistance
Yolla,Yolla,Yolla District High School,School La,,Yolla,TAS,7325,classroom D1,,Assistance
Zeehan,Zeehan,Zeehan Primary School,7 Belstead St,,Zeehan,TAS,7469,activity hall,,Assistance