PollingPlaceName,Locality,Polling Place Address,PremiseName,PremiseAddress1,PremiseAddress2,PremiseLocality,PremisePostcode,PremiseState,LocationWithinPremise,AccessToLocation,Disabled Access
Avoca,Avoca,"Avoca Primary School, 26-30 St Pauls Pl, AVOCA TAS 7213",Avoca Primary School,26-30 St Pauls Pl,,Avoca,7213,TAS,Bottom Classroom,,None
Bagdad,Bagdad,"Bagdad Primary School, 46-48 School Rd, BAGDAD TAS 7030",Bagdad Primary School,46-48 School Rd,,Bagdad,7030,TAS,Hall,,None
Beaconsfield,Beaconsfield,"Beaconsfield Senior Citizens' Hall, Weld St, BEACONSFIELD TAS 7270",Beaconsfield Senior Citizens' Hall,Weld St,,Beaconsfield,7270,TAS,,,Assistance
Beauty Point,Beauty Point,"Beauty Point Uniting Church Hall, Beatty St, BEAUTY POINT TAS 7270",Beauty Point Uniting Church Hall,Beatty St,,Beauty Point,7270,TAS,,,Assistance
Bicheno,Bicheno,"Bicheno Beachfront, Sinclair St, BICHENO TAS 7215",Bicheno Beachfront,Sinclair St,,Bicheno,7215,TAS,Conference Room,,Assistance
Bothwell,Bothwell,"Bothwell Council Chambers, Alexander St, BOTHWELL TAS 7030",Bothwell Council Chambers,Alexander St,,Bothwell,7030,TAS,,,Assistance
Bracknell,Bracknell,"Bracknell War Memorial Hall, Louisa St, BRACKNELL TAS 7302",Bracknell War Memorial Hall,Louisa St,,Bracknell,7302,TAS,,,Assistance
Bridgewater,Bridgewater,"Brighton Civic Centre, 25 Green Point Rd, BRIDGEWATER TAS 7030",Brighton Civic Centre,25 Green Point Rd,,Bridgewater,7030,TAS,,,Assistance
Brighton,Brighton,"Brighton Primary School, 27 Downie St, BRIGHTON TAS 7030",Brighton Primary School,27 Downie St,,Brighton,7030,TAS,,,Assistance
Broadmarsh,Broadmarsh,"Broadmarsh Hall, 1218 Elderslie Rd, BROADMARSH TAS 7030",Broadmarsh Hall,1218 Elderslie Rd,,Broadmarsh,7030,TAS,,,Assistance
Campania,Campania,"Campania Hall, 45 Reeve St, CAMPANIA TAS 7026",Campania Hall,45 Reeve St,,Campania,7026,TAS,,,Assistance
Campbell Town,Campbell Town,"Campbell Town Town Hall, 75 High St, CAMPBELL TOWN TAS 7210",Campbell Town Town Hall,75 High St,,Campbell Town,7210,TAS,,,Assistance
Carrick,Carrick,"Carrick Public Hall, 29 Meander Valley Rd, CARRICK TAS 7291",Carrick Public Hall,29 Meander Valley Rd,,Carrick,7291,TAS,,,Assistance
Chudleigh,Chudleigh,"Chudleigh Memorial Hall, 54 Sorell St, CHUDLEIGH TAS 7304",Chudleigh Memorial Hall,54 Sorell St,,Chudleigh,7304,TAS,,,Assistance
Claude Road,Claude Road,"Claude Road Memorial Hall, 787 Claude Rd, CLAUDE ROAD TAS 7306",Claude Road Memorial Hall,787 Claude Rd,,Claude Road,7306,TAS,,,None
Colebrook,Colebrook,"Colebrook Fire Station, Colebrook Rd, COLEBROOK TAS 7027",Colebrook Fire Station,Colebrook Rd,,Colebrook,7027,TAS,,,Assistance
Coles Bay,Coles Bay,"Coles Bay Community Hall, Harold St, COLES BAY TAS 7215",Coles Bay Community Hall,Harold St,,Coles Bay,7215,TAS,,,None
Copping,Copping,"Copping Hall, 69 Allanby St, COPPING TAS 7174",Copping Hall,69 Allanby St,,Copping,7174,TAS,,,Assistance
Cressy,Cressy,"Cressy Community Hall, Main St, CRESSY TAS 7302",Cressy Community Hall,Main St,,Cressy,7302,TAS,,,Assistance
Deloraine,Deloraine,"Deloraine High School Hall, 24 Lansdowne Pl, DELORAINE TAS 7304",Deloraine High School Hall,24 Lansdowne Pl,,Deloraine,7304,TAS,,,Assistance
Dodges Ferry,Dodges Ferry,"Dodges Ferry Community Recreation Centre, 532 Old Forcett Rd, DODGES FERRY TAS 7173",Dodges Ferry Community Recreation Centre,532 Old Forcett Rd,,Dodges Ferry,7173,TAS,Within Dodges Ferry Primary School,,Assistance
Dromedary,Dromedary,"Dromedary (Millvale) Community Hall, 14 Millvale Rd, DROMEDARY TAS 7030",Dromedary (Millvale) Community Hall,14 Millvale Rd,,Dromedary,7030,TAS,,,None
Dunalley,Dunalley,"Dunalley Primary School, 20-32 Bay St, DUNALLEY TAS 7177",Dunalley Primary School,20-32 Bay St,,Dunalley,7177,TAS,,,Assistance
Elizabeth Town,Elizabeth Town,"Elizabeth Town Fire Station, 5816 Bass Hwy, ELIZABETH TOWN TAS 7304",Elizabeth Town Fire Station,5816 Bass Hwy,,Elizabeth Town,7304,TAS,,,Assistance
Epping,Epping Forest,"Epping Forest Public Hall, 13515 Midland Hwy, EPPING FOREST TAS 7211",Epping Forest Public Hall,13515 Midland Hwy,,Epping Forest,7211,TAS,,,Assistance
Evandale,Evandale,"Evandale Primary School, 5-11 Barclay St, EVANDALE TAS 7212",Evandale Primary School,5-11 Barclay St,,Evandale,7212,TAS,GP Room,,Assistance
Exeter,Exeter,"Exeter High School, 28 Glen Ard Mohr Rd, EXETER TAS 7275",Exeter High School,28 Glen Ard Mohr Rd,,Exeter,7275,TAS,,,Assistance
Fingal,Fingal,"Fingal Activity Centre, 29 Talbot St, FINGAL TAS 7214",Fingal Activity Centre,29 Talbot St,,Fingal,7214,TAS,,,Assistance
Forcett,Forcett,"Forcett Public Hall, 699 Arthur Hwy, FORCETT TAS 7173",Forcett Public Hall,699 Arthur Hwy,,Forcett,7173,TAS,,,Assistance
Frankford,Frankford,"Frankford Memorial Hall, Frankford Rd, FRANKFORD TAS 7275",Frankford Memorial Hall,Frankford Rd,,Frankford,7275,TAS,,,Assistance
Gagebrook,Gagebrook,"Gagebrook Primary School, 4 Tottenham Rd, GAGEBROOK TAS 7030",Gagebrook Primary School,4 Tottenham Rd,,Gagebrook,7030,TAS,,,Assistance
Glengarry,Glengarry,"Glengarry Fire Station, Frankford Rd, GLENGARRY TAS 7275",Glengarry Fire Station,Frankford Rd,,Glengarry,7275,TAS,,,Assistance
Glenora,Glenora,"Glenora District High School, 620 Gordon River Rd, GLENORA TAS 7140",Glenora District High School,620 Gordon River Rd,,Glenora,7140,TAS,,,None
Granton,Granton,"Granton Memorial Hall, Lyell Hwy, GRANTON TAS 7030",Granton Memorial Hall,Lyell Hwy,,Granton,7030,TAS,,,Assistance
Gravelly Beach,Gravelly Beach,"Gravelly Beach Main Hall, Edinburgh Park, off Gravelly Beach Rd, GRAVELLY BEACH TAS 7276",Gravelly Beach Main Hall,"Edinburgh Park, off Gravelly Beach Rd",,Gravelly Beach,7276,TAS,,,Assistance
Hagley,Hagley,"Hagley Farm Primary School, 2508 Meander Valley Rd, HAGLEY TAS 7292",Hagley Farm Primary School,2508 Meander Valley Rd,,Hagley,7292,TAS,,,Assistance
Kelso,Kelso,"Kelso Community Centre, Foreshore Rd, KELSO TAS 7270",Kelso Community Centre,Foreshore Rd,,Kelso,7270,TAS,,,None
Kempton,Kempton,"Kempton Council Chambers, Main St, KEMPTON TAS 7030",Kempton Council Chambers,Main St,,Kempton,7030,TAS,,,Assistance
Lachlan,Lachlan,"Lachlan Community Hall, 511 Lachlan Rd, LACHLAN TAS 7140",Lachlan Community Hall,511 Lachlan Rd,,Lachlan,7140,TAS,,,Assistance
Legana (Lyons),Legana,"Legana Memorial Hall, 43 Fulton St, 2, LEGANA TAS 7277",Legana Memorial Hall,43 Fulton St,,Legana,7277,TAS,,,Assistance
Levendale,Levendale,"Levendale Community Hall, Woodsdale Rd, LEVENDALE TAS 7120",Levendale Community Hall,Woodsdale Rd,,Levendale,7120,TAS,,,None
Longford,Longford,"Longford War Memorial Hall, Wellington St, LONGFORD TAS 7301",Longford War Memorial Hall,Wellington St,,Longford,7301,TAS,,,Assistance
Lower Barrington,Lower Barrington,"Lower Barrington Public Hall, 1027 Sheffield Rd, LOWER BARRINGTON TAS 7306",Lower Barrington Public Hall,1027 Sheffield Rd,,Lower Barrington,7306,TAS,,,None
Magra,Magra,"Magra CWA Building, Back River Rd, MAGRA TAS 7140",Magra CWA Building,Back River Rd,,Magra,7140,TAS,,,Assistance
Mathinna,Mathinna,"Mathinna Community Centre, 21 High St, MATHINNA TAS 7214",Mathinna Community Centre,21 High St,,Mathinna,7214,TAS,,,None
Maydena,Maydena,"Giant's Table and Cottages, 9-13 Junee Rd, MAYDENA TAS 7140",Giant's Table and Cottages,9-13 Junee Rd,,Maydena,7140,TAS,,,Assistance
Meander,Meander,"Meander Memorial Hall, 124 Main Rd, MEANDER TAS 7304",Meander Memorial Hall,124 Main Rd,,Meander,7304,TAS,,,Full
Midway Point,Midway Point,"Midway Point Community Hall, Raynors Rd, MIDWAY POINT TAS 7171",Midway Point Community Hall,Raynors Rd,,Midway Point,7171,TAS,,,Assistance
Miena,Miena,"Miena Community Centre, 55-57 Cider Gum Rd, MIENA TAS 7030",Miena Community Centre,55-57 Cider Gum Rd,,Miena,7030,TAS,,,Assistance
Mole Creek,Mole Creek,"Mole Creek Primary School, 4 Caveside Rd, MOLE CREEK TAS 7304",Mole Creek Primary School,4 Caveside Rd,,Mole Creek,7304,TAS,,,Assistance
Molesworth,Molesworth,"Molesworth Community Hall, 560 Molesworth Rd, MOLESWORTH TAS 7140",Molesworth Community Hall,560 Molesworth Rd,,Molesworth,7140,TAS,,,Assistance
Moriarty,Moriarty,"Moriarty Hall, 1 Bonneys La, MORIARTY TAS 7307",Moriarty Hall,1 Bonneys La,,Moriarty,7307,TAS,,,Assistance
New Norfolk North,New Norfolk,"Fairview Primary School, 211 Back River Rd, NEW NORFOLK TAS 7140",Fairview Primary School,211 Back River Rd,,New Norfolk,7140,TAS,,,Full
New Norfolk,New Norfolk,"New Norfolk Primary School, 8 Pioneer Ave, NEW NORFOLK TAS 7140",New Norfolk Primary School,8 Pioneer Ave,,New Norfolk,7140,TAS,,,Assistance
Nubeena,Nubeena,"Tasman Civic Centre, 21 Clarke St, NUBEENA TAS 7184",Tasman Civic Centre,21 Clarke St,,Nubeena,7184,TAS,,,Assistance
Oatlands,Oatlands,"Oatlands Council Chambers, 71 High St, OATLANDS TAS 7120",Oatlands Council Chambers,71 High St,,Oatlands,7120,TAS,Court Room,,Assistance
Orford,Orford,"Orford Primary School, 35 Charles St, ORFORD TAS 7190",Orford Primary School,35 Charles St,,Orford,7190,TAS,,,Full
Ouse,Ouse,"Ouse Online Centre, 6947 Lyell Hwy, OUSE TAS 7140",Ouse Online Centre,6947 Lyell Hwy,,Ouse,7140,TAS,,,Assistance
Perth,Perth,"Perth Community Centre, 173 Fairtlough St, PERTH TAS 7300",Perth Community Centre,173 Fairtlough St,,Perth,7300,TAS,,,Assistance
Pontville,Pontville,"Pontville Old Council Chambers, 262 Midland Hwy, PONTVILLE TAS 7030",Pontville Old Council Chambers,262 Midland Hwy,,Pontville,7030,TAS,,,Assistance
Port Sorell,Port Sorell,"Port Sorell Memorial Hall, Cnr Darling and Meredith Sts, PORT SORELL TAS 7307",Port Sorell Memorial Hall,Cnr Darling and Meredith Sts,,Port Sorell,7307,TAS,,,Assistance
Primrose Sands,Primrose Sands,"Primrose Sands Community Hall, 570 Primrose Sands Rd, PRIMROSE SANDS TAS 7173",Primrose Sands Community Hall,570 Primrose Sands Rd,,Primrose Sands,7173,TAS,,,Assistance
Railton,Railton,"Sheffield School (Railton Campus), 94 Foster St, RAILTON TAS 7305",Sheffield School (Railton Campus),94 Foster St,,Railton,7305,TAS,,,Assistance
Ross,Ross,"Ross Town Hall, 12 Bridge St, ROSS TAS 7209",Ross Town Hall,12 Bridge St,,Ross,7209,TAS,,,None
Sassafras,Sassafras,"Sassafras Primary School, 50 School Rd, SASSAFRAS TAS 7307",Sassafras Primary School,50 School Rd,,Sassafras,7307,TAS,,,Assistance
Scamander,Scamander,"Scamander Sports Complex, Coach Rd, SCAMANDER TAS 7215",Scamander Sports Complex,Coach Rd,,Scamander,7215,TAS,Dining Room,,None
Sheffield,Sheffield,"Sheffield School, 12 Henry St, SHEFFIELD TAS 7306",Sheffield School,12 Henry St,,Sheffield,7306,TAS,,,Assistance
Sidmouth,Sidmouth,"Sidmouth Community Centre, 255 Batman Hwy, SIDMOUTH TAS 7270",Sidmouth Community Centre,255 Batman Hwy,,Sidmouth,7270,TAS,,,Assistance
Sorell,Sorell,"Sorell Memorial Hall, Cole St, SORELL TAS 7172",Sorell Memorial Hall,Cole St,,Sorell,7172,TAS,,,Assistance
St Helens,St Helens,"St Helens District High School, 9 Circassian St, ST HELENS TAS 7216",St Helens District High School,9 Circassian St,,St Helens,7216,TAS,,,Full
St Marys,St Marys,"St Marys Community Hall, Main St, ST MARYS TAS 7215",St Marys Community Hall,Main St,,St Marys,7215,TAS,Supper Room,,Assistance
Swansea,Swansea,"Swansea Primary School, 25 Franklin St, SWANSEA TAS 7190",Swansea Primary School,25 Franklin St,,Swansea,7190,TAS,,,Full
Taranna,Taranna,"Tasman Peninsula Community Centre, Gourlay Rd, TARANNA TAS 7180",Tasman Peninsula Community Centre,Gourlay Rd,,Taranna,7180,TAS,,,Assistance
Tea Tree,Tea Tree,"Tea Tree Community Hall, Briar Banks Rd, TEA TREE TAS 7017",Tea Tree Community Hall,Briar Banks Rd,,Tea Tree,7017,TAS,,,Assistance
Triabunna,Triabunna,"Triabunna Hall, 3 Vicary St, TRIABUNNA TAS 7190",Triabunna Hall,3 Vicary St,,Triabunna,7190,TAS,,,Assistance
Tunnack,Tunnack,"Tunnack Public Hall, Tunnack Rd, TUNNACK TAS 7120",Tunnack Public Hall,Tunnack Rd,,Tunnack,7120,TAS,,,Assistance
Wesley Vale,Wesley Vale,"Andrews Creek Primary School, 20 Westwind Dr, WESLEY VALE TAS 7307",Andrews Creek Primary School,20 Westwind Dr,,Wesley Vale,7307,TAS,,,Assistance
Westbury,Westbury,"Westbury Town Hall, 26 Lyall St, WESTBURY TAS 7303",Westbury Town Hall,26 Lyall St,,Westbury,7303,TAS,Supper Room,,Assistance
Westerway,Westerway,"Westerway Primary School, 1619 Gordon River Rd, WESTERWAY TAS 7140",Westerway Primary School,1619 Gordon River Rd,,Westerway,7140,TAS,,,Assistance
Wilmot,Wilmot,"Wilmot Primary School, 61 Main Rd, WILMOT TAS 7310",Wilmot Primary School,61 Main Rd,,Wilmot,7310,TAS,,,Assistance